OSCAR 7 (AO-7)          
1 07530U 74089B   26156.25337361 -.00000049  00000+0 -14506-4 0  9997
2 07530 101.9901 169.3754 0012431 152.3188 270.3033 12.53697882359020
PHASE 3B (AO-10)        
1 14129U 83058B   26156.71565058 -.00000155  00000+0  00000+0 0  9998
2 14129  25.9038 221.4654 6014762 112.5116 319.5552  2.05872928295259
LUSAT (LO-19)           
1 20442U 90005G   26156.87941931  .00000136  00000+0  65389-4 0  9992
2 20442  98.8853 178.3731 0010588 236.4292 123.5881 14.34119746900776
EYESAT A (AO-27)        
1 22825U 93061C   26156.46242273  .00000116  00000+0  61062-4 0  9994
2 22825  98.6882 223.8798 0009295 130.1900 230.0097 14.30939100705328
ITAMSAT (IO-26)         
1 22826U 93061D   26156.09581524  .00000110  00000+0  58344-4 0  9992
2 22826  98.6830 223.4296 0009997 116.5147 243.7062 14.31365384705580
RADIO ROSTO (RS15)      
1 23439U 94085A   26156.94115666 -.00000041  00000+0  44893-4 0  9992
2 23439  64.8186 321.4044 0155607   5.9545 354.3184 11.27583594294633
JAS-2 (FO-29)           
1 24278U 96046B   26156.48148801 -.00000028  00000+0  47757-5 0  9997
2 24278  98.5250   6.9568 0350683 126.7306 236.6586 13.53273625471586
TECHSAT 1B (GO-32)      
1 25397U 98043D   26156.47428678  .00000072  00000+0  51302-4 0  9999
2 25397  99.0065 148.9377 0000405 200.1436 159.9726 14.24426083449663
PCSAT (NO-44)           
1 26931U 01043C   26156.77450165  .00000153  00000+0  87929-4 0  9991
2 26931  67.0513 273.7893 0006114 264.0839  95.9566 14.31951978288813
SAUDISAT 1C (SO-50)     
1 27607U 02058C   26156.35454122  .00001035  00000+0  13927-3 0  9996
2 27607  64.5503 165.5947 0075494 264.6340  94.6150 14.83020071262706
CUTE-1 (CO-55)          
1 27844U 03031E   26154.54951729  .00000336  00000+0  16425-3 0  9994
2 27844  98.6736 163.2800 0008690 219.4250 140.6297 14.24327019189732
CUBESAT XI-IV (CO-57)   
1 27848U 03031J   26156.49908036  .00000268  00000+0  13675-3 0  9995
2 27848  98.6767 164.9270 0008410 233.7946 126.2455 14.23614506189713
CUBESAT XI-V            
1 28895U 05043F   26156.37597232  .00001533  00000+0  24897-3 0  9996
2 28895  98.2974 311.7509 0012981 240.3240 119.6675 14.72598573100013
CUTE-1.7+APD II (CO-65) 
1 32785U 08021C   26156.78008770  .00006409  00000+0  40529-3 0  9994
2 32785  97.8271 137.9628 0010515  72.1475 288.0899 15.09339359983477
SEEDS II (CO-66)        
1 32791U 08021J   26156.44822116  .00019038  00000+0  61158-3 0  9995
2 32791  97.7518 153.7894 0002814  37.2994 322.8442 15.32333038985498
YUBILEINY (RS30)        
1 32953U 08025A   26157.07296985  .00000032  00000+0  15943-3 0  9993
2 32953  82.5044   2.3550 0019332 338.7958  21.2319 12.43178929818318
KKS-1 (KISEKI)          
1 33499U 09002H   26156.85470981  .00001648  00000+0  20914-3 0  9998
2 33499  98.1193  79.1174 0007267 337.6889  22.4007 14.83095030934516
SWISSCUBE               
1 35932U 09051B   26156.46919883  .00001141  00000+0  23506-3 0  9990
2 35932  98.4043  64.1532 0005430 246.3597 113.7034 14.62458715887444
BEESAT-1                
1 35933U 09051C   26156.54100500  .00000964  00000+0  20332-3 0  9994
2 35933  98.3972  63.8860 0003902 263.9063  96.1693 14.61701276887481
ITUPSAT1                
1 35935U 09051E   26155.69953963  .00000958  00000+0  20796-3 0  9997
2 35935  98.4056  62.2366 0006134 280.9538  79.0971 14.60421767886916
XIWANG-1 (HOPE-1)       
1 36122U 09072B   26157.14801059  .00000368  00000+0  10795-2 0  9991
2 36122 100.4028 111.1572 0006772 259.6531 100.3818 13.16440319791552
O/OREOS (USA 219)       
1 37224U 10062C   26156.87810412  .00002979  00000+0  28689-3 0  9990
2 37224  71.9702 105.9546 0012371  87.8701 272.3886 14.93695134114952
JUGNU                   
1 37839U 11058B   26156.96302082  .00000454  00000+0  97396-4 0  9995
2 37839  19.9622  16.6157 0018509 312.5013 261.4793 14.13773850757432
SRMSAT                  
1 37841U 11058D   26156.64627256  .00000376  00000+0  60191-4 0  9992
2 37841  19.9704 129.3229 0011943  77.5338  79.4380 14.11573181756184
STRAND-1                
1 39090U 13009E   26156.49876752  .00000302  00000+0  11583-3 0  9997
2 39090  98.3919 337.0211 0007391 265.4490  94.5853 14.37156205695388
ZACUBE-1 (TSHEPISOSAT)  
1 39417U 13066B   26156.87565315  .00005212  00000+0  40520-3 0  9993
2 39417  97.8104 119.1515 0039938 287.6296  72.0568 15.01114956679036
